QIANFAN-89              
1 63175U 25046S   25239.18666893  .00000176  00000+0  25348-3 0  9995
2 63175  88.9863 331.1333 0018352  80.5690 279.7534 13.50970805 32886
QIANFAN-90              
1 63176U 25046T   25239.21547424  .00000165  00000+0  23608-3 0  9993
2 63176  88.9863 331.1025 0015251  79.6428 280.6441 13.50969900 32903
